ONEWEB-0080             
1 45426U 20020C   24318.57744564  .00000482  00000+0  13245-2 0  9995
2 45426  87.8880 136.7436 0001624  74.1992 285.9314 13.11416710226600
ONEWEB-0061             
1 45428U 20020E   24318.55017878  .00000093  00000+0  22748-3 0  9993
2 45428  87.8882 136.7306 0001547  86.7118 273.4187 13.11418402226524
ONEWEB-0081             
1 45429U 20020F   24318.53164969 -.00000475  00000+0 -13766-2 0  9991
2 45429  87.8885 136.7529 0001755  88.3748 271.7581 13.11416855226634
ONEWEB-0031             
1 45431U 20020H   24318.56896457  .00000484  00000+0  13305-2 0  9998
2 45431  87.8889 136.7520 0001454  89.3636 270.7659 13.11415749226552
ONEWEB-0027             
1 45432U 20020J   24318.54690199  .00000078  00000+0  16689-3 0  9990
2 45432  87.9072 121.5210 0001237  96.5215 263.6057 13.17648946229894
ONEWEB-0064             
1 45433U 20020K   24318.56727166  .00000544  00000+0  15001-2 0  9992
2 45433  87.8884 136.7548 0001341  84.6869 275.4412 13.11415084226584
